NORAD_CAT_ID,OBJECT_NAME,OBJECT_TYPE,EPOCH,MEAN_MOTION,ECCENTRICITY,INCLINATION,RA_OF_ASC_NODE,ARG_OF_PERICENTER,MEAN_ANOMALY,BSTAR,MEAN_MOTION_DOT,MEAN_MOTION_DDOT,TLE_LINE0,TLE_LINE1,TLE_LINE2,SEMIMAJOR_AXIS,PERIOD,APOGEE,PERIGEE,DECAYED
56456.0,STARLINK-5995,PAYLOAD,2023-06-20 14:00:01,15.48132906,0.0003183,69.9996,131.0549,269.426,53.2756,-0.018806,-0.00912029,0.0,0 STARLINK-5995,1 56456U 23064J   23171.58334491 -.00912029  00000-0 -18806-1 0  9991,2 56456  69.9996 131.0549 0003183 269.4260  53.2756 15.48132906  1304,6800.325,93.015,424.355,420.026,0.0
56456.0,STARLINK-5995,PAYLOAD,2023-06-20 22:00:00,15.47528455,0.0003323,70.0,130.1487,267.4652,112.0376,-0.02059,-0.00972294,0.0,0 STARLINK-5995,1 56456U 23064J   23171.91667824 -.00972294  00000-0 -20590-1 0  9990,2 56456  70.0000 130.1487 0003323 267.4652 112.0376 15.47528455  6824,6802.096,93.052,426.221,421.7,0.0
56456.0,STARLINK-5995,PAYLOAD,2023-06-21 14:00:01,15.46170526,0.0003142,69.9996,128.3379,270.6558,220.1647,-0.019806,-0.00898322,0.0,0 STARLINK-5995,1 56456U 23064J   23172.58334491 -.00898322  00000-0 -19806-1 0  9992,2 56456  69.9996 128.3379 0003142 270.6558 220.1647 15.46170526  6939,6806.078,93.133,430.081,425.804,0.0
56456.0,STARLINK-5995,PAYLOAD,2023-06-21 22:00:01,15.45565153,0.0003149,70.0002,127.434,265.6334,279.7088,-0.021781,-0.00961822,0.0,0 STARLINK-5995,1 56456U 23064J   23172.91668981 -.00961822  00000-0 -21781-1 0  9994,2 56456  70.0002 127.4340 0003149 265.6334 279.7088 15.45565153  1309,6807.855,93.17,431.864,427.576,0.0
56456.0,STARLINK-5995,PAYLOAD,2023-06-22 06:00:00,15.44862224,0.0003134,70.0,126.5308,270.8865,328.1009,-0.020297,-0.00881505,0.0,0 STARLINK-5995,1 56456U 23064J   23173.25001157 -.00881505  00000-0 -20297-1 0  9998,2 56456  70.0000 126.5308 0003134 270.8865 328.1009 15.44862224  7038,6809.92,93.212,433.919,429.651,0.0
56456.0,STARLINK-5995,PAYLOAD,2023-06-22 20:00:01,15.4375752,0.0003247,69.9997,124.9526,263.3098,337.7422,-0.022429,-0.00933609,0.0,0 STARLINK-5995,1 56456U 23064J   23173.83334491 -.00933609  00000-0 -22429-1 0  9994,2 56456  69.9997 124.9526 0003247 263.3098 337.7422 15.43757520  7120,6813.168,93.279,437.246,432.821,0.0
56456.0,STARLINK-5995,PAYLOAD,2023-06-23 22:00:01,15.41649413,0.0003219,69.9998,122.0284,269.495,226.2712,-0.02486,-0.00961316,0.0,0 STARLINK-5995,1 56456U 23064J   23174.91668981 -.00961316  00000-0 -24860-1 0  9995,2 56456  69.9998 122.0284 0003219 269.4950 226.2712 15.41649413  7295,6819.378,93.406,443.438,439.048,0.0
56456.0,STARLINK-5995,PAYLOAD,2023-06-24 14:00:01,15.40290452,0.000325,69.9995,120.2338,269.6393,323.2978,-0.023655,-0.00880896,0.0,0 STARLINK-5995,1 56456U 23064J   23175.58334491 -.00880896  00000-0 -23655-1 0  9999,2 56456  69.9995 120.2338 0003250 269.6393 323.2978 15.40290452  7397,6823.388,93.489,447.471,443.036,0.0
56456.0,STARLINK-5995,PAYLOAD,2023-06-25 06:00:00,15.38991456,0.0003473,69.9993,118.4427,273.4407,53.5786,-0.02466,-0.00879931,0.0,0 STARLINK-5995,1 56456U 23064J   23176.25001157 -.00879931  00000-0 -24660-1 0  9999,2 56456  69.9993 118.4427 0003473 273.4407  53.5786 15.38991456  7499,6827.227,93.568,451.464,446.721,0.0
56456.0,STARLINK-5995,PAYLOAD,2023-06-25 22:00:01,15.37732473,0.000353,69.9995,116.6549,268.7636,149.265,-0.028185,-0.00958022,0.0,0 STARLINK-5995,1 56456U 23064J   23176.91668981 -.00958022  00000-0 -28185-1 0  9991,2 56456  69.9995 116.6549 0003530 268.7636 149.2650 15.37732473  7608,6830.953,93.644,455.23,450.407,0.0
56456.0,STARLINK-5995,PAYLOAD,2023-06-26 14:00:01,15.36371347,0.0003383,69.9991,114.8706,269.9342,235.8758,-0.026503,-0.00869202,0.0,0 STARLINK-5995,1 56456U 23064J   23177.58334491 -.00869202  00000-0 -26503-1 0  9994,2 56456  69.9991 114.8706 0003383 269.9342 235.8758 15.36371347  7702,6834.987,93.727,459.165,454.54,0.0
56456.0,STARLINK-5995,PAYLOAD,2023-06-27 06:00:00,15.35074536,0.0003382,69.9993,113.0898,274.9989,315.5062,-0.027821,-0.00874706,0.0,0 STARLINK-5995,1 56456U 23064J   23178.25001157 -.00874706  00000-0 -27821-1 0  9998,2 56456  69.9993 113.0898 0003382 274.9989 315.5062 15.35074536  7803,6838.836,93.807,463.014,458.388,0.0
56456.0,STARLINK-5995,PAYLOAD,2023-06-27 22:00:00,15.33819006,0.0003507,69.9994,111.3127,269.1132,42.9487,-0.032106,-0.00961782,0.0,0 STARLINK-5995,1 56456U 23064J   23178.91667824 -.00961782  00000-0 -32106-1 0  9993,2 56456  69.9994 111.3127 0003507 269.1132  42.9487 15.33819006  7905,6842.568,93.883,466.832,462.033,0.0
56456.0,STARLINK-5995,PAYLOAD,2023-06-28 14:00:01,15.32447732,0.0003409,69.9993,109.5391,271.6255,118.8985,-0.029466,-0.00853989,0.0,0 STARLINK-5995,1 56456U 23064J   23179.58334491 -.00853989  00000-0 -29466-1 0  9992,2 56456  69.9993 109.5391 0003409 271.6255 118.8985 15.32447732  8012,6846.649,93.967,470.848,466.18,0.0
56456.0,STARLINK-5995,PAYLOAD,2023-06-29 22:00:00,15.299027,0.0003265,69.9997,106.0031,271.4403,266.5594,-0.03638,-0.00976052,0.0,0 STARLINK-5995,1 56456U 23064J   23180.91667824 -.00976052  00000-0 -36380-1 0  9990,2 56456  69.9997 106.0031 0003265 271.4403 266.5594 15.29902700  8218,6854.24,94.124,478.343,473.867,0.0
56456.0,STARLINK-5995,PAYLOAD,2023-06-30 22:00:00,15.27940752,0.0003308,70.0002,103.3602,267.9379,12.4696,-0.038225,-0.00966215,0.0,0 STARLINK-5995,1 56456U 23064J   23181.91667824 -.00966215  00000-0 -38225-1 0  9991,2 56456  70.0002 103.3602 0003308 267.9379  12.4696 15.27940752  8366,6860.106,94.244,484.24,479.702,0.0
56456.0,STARLINK-5995,PAYLOAD,2023-07-01 12:00:00,15.26762738,0.0003192,70.0002,101.822,268.8989,338.0048,-0.036978,-0.00895227,0.0,0 STARLINK-5995,1 56456U 23064J   23182.50001157 -.00895227  00000-0 -36978-1 0  9995,2 56456  70.0002 101.8220 0003192 268.8989 338.0048 15.26762738  8456,6863.634,94.317,487.69,483.308,0.0
56456.0,STARLINK-5995,PAYLOAD,2023-07-02 04:00:00,15.25455902,0.0003319,70.0007,100.0676,274.6595,33.8619,-0.037518,-0.00874818,0.0,0 STARLINK-5995,1 56456U 23064J   23183.16667824 -.00874818  00000-0 -37518-1 0  9991,2 56456  70.0007 100.0676 0003319 274.6595  33.8619 15.25455902  8552,6867.554,94.398,491.698,487.139,0.0
56456.0,STARLINK-5995,PAYLOAD,2023-07-04 06:00:02,15.21408287,0.0003102,70.0006,94.607,274.9137,296.0626,-0.045038,-0.00937879,0.0,0 STARLINK-5995,1 56456U 23064J   23185.25002315 -.00937879  00000-0 -45038-1 0  9994,2 56456  70.0006  94.6070 0003102 274.9137 296.0626 15.21408287  8878,6879.729,94.649,503.728,499.46,0.0
56456.0,STARLINK-5995,PAYLOAD,2023-07-05 14:00:01,15.18749976,0.0003208,70.0003,91.13,265.384,39.9053,-0.04376,-0.00839661,0.0,0 STARLINK-5995,1 56456U 23064J   23186.58335648 -.00839661  00000-0 -43760-1 0  9999,2 56456  70.0003  91.1300 0003208 265.3840  39.9053 15.18749976  9075,6887.754,94.815,511.829,507.41,0.0
56456.0,STARLINK-5995,PAYLOAD,2023-07-05 22:00:01,15.18133403,0.0003213,70.0004,90.2629,267.9054,58.9994,-0.049135,-0.00930582,0.0,0 STARLINK-5995,1 56456U 23064J   23186.91668981 -.00930582  00000-0 -49135-1 0  9991,2 56456  70.0004  90.2629 0003213 267.9054  58.9994 15.18133403  9124,6889.619,94.853,513.698,509.271,0.0
56456.0,STARLINK-5995,PAYLOAD,2023-07-07 06:00:00,15.15547388,0.0003165,69.9996,86.8029,273.1808,132.3011,-0.054542,-0.00956988,0.0,0 STARLINK-5995,1 56456U 23064J   23188.25001157 -.00956988  00000-0 -54542-1 0  9992,2 56456  69.9996  86.8029 0003165 273.1808 132.3011 15.15547388  9336,6897.454,95.015,521.502,517.136,0.0
56456.0,STARLINK-5995,PAYLOAD,2023-07-07 22:00:00,15.14212166,0.0003208,69.9998,85.0781,272.4689,167.6617,-0.054216,-0.00918868,0.0,0 STARLINK-5995,1 56456U 23064J   23188.91667824 -.00918868  00000-0 -54216-1 0  9997,2 56456  69.9998  85.0781 0003208 272.4689 167.6617 15.14212166  9437,6901.508,95.099,525.587,521.159,0.0
56456.0,STARLINK-5995,PAYLOAD,2023-07-08 22:00:00,15.12248925,0.0003129,69.9997,82.4974,272.6719,213.5443,-0.056663,-0.00909479,0.0,0 STARLINK-5995,1 56456U 23064J   23189.91667824 -.00909479  00000-0 -56663-1 0  9994,2 56456  69.9997  82.4974 0003129 272.6719 213.5443 15.12248925  9583,6907.48,95.222,531.507,527.184,0.0
56456.0,STARLINK-5995,PAYLOAD,2023-07-09 22:00:00,15.10287789,0.0003089,69.9998,79.9245,271.1868,254.0725,-0.059315,-0.00902063,0.0,0 STARLINK-5995,1 56456U 23064J   23190.91667824 -.00902063  00000-0 -59315-1 0  9995,2 56456  69.9998  79.9245 0003089 271.1868 254.0725 15.10287789  9739,6913.459,95.346,537.459,533.188,0.0
56456.0,STARLINK-5995,PAYLOAD,2023-07-10 22:00:00,15.08327211,0.0003086,70.0,77.3595,269.604,287.6571,-0.062103,-0.00895357,0.0,0 STARLINK-5995,1 56456U 23064J   23191.91667824 -.00895357  00000-0 -62103-1 0  9992,2 56456  70.0000  77.3595 0003086 269.6040 287.6571 15.08327211  9886,6919.448,95.47,543.449,539.178,0.0
56456.0,STARLINK-5995,PAYLOAD,2023-07-11 14:00:01,15.07036871,0.0003041,70.0,75.654,264.6156,310.0537,-0.064165,-0.00893232,0.0,0 STARLINK-5995,1 56456U 23064J   23192.58334491 -.00893232  00000-0 -64165-1 0  9997,2 56456  70.0000  75.6540 0003041 264.6156 310.0537 15.07036871  9983,6923.397,95.552,547.368,543.157,0.0
56456.0,STARLINK-5995,PAYLOAD,2023-07-12 06:00:00,15.05771767,0.0003056,70.0001,73.9518,270.2517,318.7039,-0.073065,-0.0098741,0.0,0 STARLINK-5995,1 56456U 23064J   23193.25001157 -.00987410  00000-0 -73065-1 0  9993,2 56456  70.0001  73.9518 0003056 270.2517 318.7039 15.05771767 10083,6927.275,95.632,551.257,547.023,0.0
56456.0,STARLINK-5995,PAYLOAD,2023-07-12 22:00:00,15.04407195,0.0003155,70.0005,72.2532,272.0029,328.1401,-0.068045,-0.00883083,0.0,0 STARLINK-5995,1 56456U 23064J   23193.91667824 -.00883083  00000-0 -68045-1 0  9998,2 56456  70.0005  72.2532 0003155 272.0029 328.1401 15.04407195 10182,6931.463,95.719,555.515,551.141,0.0
56456.0,STARLINK-5995,PAYLOAD,2023-07-13 18:00:00,15.02838027,0.0003209,70.0008,70.1348,270.6944,158.9809,-0.079083,-0.00987897,0.0,0 STARLINK-5995,1 56456U 23064J   23194.75001157 -.00987897  00000-0 -79083-1 0  9994,2 56456  70.0008  70.1348 0003209 270.6944 158.9809 15.02838027 10313,6936.287,95.819,560.378,555.926,0.0
